[{"OBJECT_NAME":"STARLINK-5880","OBJECT_ID":"2023-094C","EPOCH":"2026-03-09T06:15:36.503424","MEAN_MOTION":15.02534794,"ECCENTRICITY":0.00012624,"INCLINATION":43.0042,"RA_OF_ASC_NODE":32.8163,"ARG_OF_PERICENTER":275.0069,"MEAN_ANOMALY":85.0629,"EPHEMERIS_TYPE":0,"CLASSIFICATION_TYPE":"U","NORAD_CAT_ID":57220,"ELEMENT_SET_NO":999,"REV_AT_EPOCH":14705,"BSTAR":2.3972433e-5,"MEAN_MOTION_DOT":1.2e-6,"MEAN_MOTION_DDOT":0},{"OBJECT_NAME":"HAMSAT (VO-52)","OBJECT_ID":"2005-017B","EPOCH":"2026-03-09T22:34:09.009120","MEAN_MOTION":15.08773202,"ECCENTRICITY":0.00200128,"INCLINATION":97.9995,"RA_OF_ASC_NODE":87.8294,"ARG_OF_PERICENTER":17.3795,"MEAN_ANOMALY":342.8113,"EPHEMERIS_TYPE":0,"CLASSIFICATION_TYPE":"U","NORAD_CAT_ID":28650,"ELEMENT_SET_NO":999,"REV_AT_EPOCH":13179,"BSTAR":0.00045282519,"MEAN_MOTION_DOT":7.08e-5,"MEAN_MOTION_DDOT":0}]
